[{"OBJECT_NAME":"STARLINK-4779","OBJECT_ID":"2022-114AY","EPOCH":"2026-03-09T20:37:43.887936","MEAN_MOTION":15.08841957,"ECCENTRICITY":0.00013927,"INCLINATION":53.2169,"RA_OF_ASC_NODE":282.9252,"ARG_OF_PERICENTER":94.4587,"MEAN_ANOMALY":265.6564,"EPHEMERIS_TYPE":0,"CLASSIFICATION_TYPE":"U","NORAD_CAT_ID":53864,"ELEMENT_SET_NO":999,"REV_AT_EPOCH":19314,"BSTAR":4.0604848e-5,"MEAN_MOTION_DOT":3.58e-6,"MEAN_MOTION_DDOT":0},{"OBJECT_NAME":"DIADEME 1","OBJECT_ID":"1967-011A","EPOCH":"2026-03-09T04:18:35.665344","MEAN_MOTION":14.73682571,"ECCENTRICITY":0.02083573,"INCLINATION":39.9159,"RA_OF_ASC_NODE":131.181,"ARG_OF_PERICENTER":280.4589,"MEAN_ANOMALY":77.2777,"EPHEMERIS_TYPE":0,"CLASSIFICATION_TYPE":"U","NORAD_CAT_ID":2674,"ELEMENT_SET_NO":999,"REV_AT_EPOCH":7534,"BSTAR":0.00083818809,"MEAN_MOTION_DOT":7.747e-5,"MEAN_MOTION_DDOT":0}]
